ASBM-2                  
1 60423U 24143B   24264.30192739 -.00000004  00000+0  00000+0 0  9994
2 60423  62.3337  69.4501 5307222 268.0050  33.4719  1.50420218  2055
